{
    "links": {
        "self": "http://www.neowsapp.com/rest/v1/neo/3879190?api_key=iIulBulltgU6a56xZRHN4H3l9WmuAYTsLGpBGhQ2"
    },
    "id": "3879190",
    "neo_reference_id": "3879190",
    "name": "(2019 TS7)",
    "designation": "2019 TS7",
    "nasa_jpl_url": "http://ssd.jpl.nasa.gov/sbdb.cgi?sstr=3879190",
    "absolute_magnitude_h": 25.2,
    "estimated_diameter": {
        "kilometers": {
            "estimated_diameter_min": 0.0242412481,
            "estimated_diameter_max": 0.0542050786
        },
        "meters": {
            "estimated_diameter_min": 24.2412481101,
            "estimated_diameter_max": 54.2050786336
        },
        "miles": {
            "estimated_diameter_min": 0.0150628086,
            "estimated_diameter_max": 0.0336814639
        },
        "feet": {
            "estimated_diameter_min": 79.5316564495,
            "estimated_diameter_max": 177.8381901842
        }
    },
    "is_potentially_hazardous_asteroid": false,
    "close_approach_data": [
        {
            "close_approach_date": "2019-10-07",
            "close_approach_date_full": "2019-Oct-07 20:00",
            "epoch_date_close_approach": 1570478400000,
            "relative_velocity": {
                "kilometers_per_second": "15.8757228692",
                "kilometers_per_hour": "57152.6023289411",
                "miles_per_hour": "35512.4044860023"
            },
            "miss_distance": {
                "astronomical": "0.0435045453",
                "lunar": "16.9232681217",
                "kilometers": "6508187.312198511",
                "miles": "4044000.0730250118"
            },
            "orbiting_body": "Earth"
        },
        {
            "close_approach_date": "2020-02-25",
            "close_approach_date_full": "2020-Feb-25 09:35",
            "epoch_date_close_approach": 1582623300000,
            "relative_velocity": {
                "kilometers_per_second": "14.1270857089",
                "kilometers_per_hour": "50857.5085522016",
                "miles_per_hour": "31600.8780223388"
            },
            "miss_distance": {
                "astronomical": "0.4860823555",
                "lunar": "189.0860362895",
                "kilometers": "72716885.027382785",
                "miles": "45184177.137881033"
            },
            "orbiting_body": "Earth"
        }
    ],
    "orbital_data": {
        "orbit_id": "1",
        "orbit_determination_date": "2019-10-15 13:12:03",
        "first_observation_date": "2019-10-08",
        "last_observation_date": "2019-10-09",
        "data_arc_in_days": 1,
        "observations_used": 21,
        "orbit_uncertainty": "8",
        "minimum_orbit_intersection": ".0434302",
        "jupiter_tisserand_invariant": "4.718",
        "epoch_osculation": "2458764.5",
        "eccentricity": ".2646301788912773",
        "semi_major_axis": "1.349801835159402",
        "inclination": "28.55487496328187",
        "ascending_node_longitude": "192.7805034826896",
        "orbital_period": "572.8005789588599",
        "perihelion_distance": ".9926035340533949",
        "perihelion_argument": "220.421331915187",
        "aphelion_distance": "1.707000136265409",
        "perihelion_time": "2458800.434674400055",
        "mean_anomaly": "337.4153810955751",
        "mean_motion": ".6284909848630865",
        "equinox": "J2000",
        "orbit_class": {
            "orbit_class_type": "APO",
            "orbit_class_description": "Near-Earth asteroid orbits which cross the Earth’s orbit similar to that of 1862 Apollo",
            "orbit_class_range": "a (semi-major axis) > 1.0 AU; q (perihelion) < 1.017 AU"
        }
    },
    "is_sentry_object": false
}